NORAD_CAT_ID,OBJECT_NAME,OBJECT_TYPE,EPOCH,MEAN_MOTION,ECCENTRICITY,INCLINATION,RA_OF_ASC_NODE,ARG_OF_PERICENTER,MEAN_ANOMALY,BSTAR,MEAN_MOTION_DOT,MEAN_MOTION_DDOT,TLE_LINE0,TLE_LINE1,TLE_LINE2,SEMIMAJOR_AXIS,PERIOD,APOGEE,PERIGEE,DECAYED
53999.0,STARLINK-5079,PAYLOAD,2023-10-12 03:41:20,15.08842376,0.0001835,53.2175,202.4285,90.4992,269.621,0.00048616,7.458e-05,0.0,0 STARLINK-5079,1 53999U 22125AM  23285.15371523  .00007458  00000-0  48616-3 0  9996,2 53999  53.2175 202.4285 0001835  90.4992 269.6210 15.08842376 56756,6917.873,95.437,541.008,538.469,0.0
53999.0,STARLINK-5079,PAYLOAD,2023-10-12 11:38:16,15.08846385,0.0001665,53.2167,200.9423,87.2351,272.8832,0.000782,0.00012182,0.0,0 STARLINK-5079,1 53999U 22125AM  23285.48491543  .00012182  00000-0  78200-3 0  9999,2 53999  53.2167 200.9423 0001665  87.2351 272.8832 15.08846385 56736,6917.861,95.437,540.878,538.574,0.0
53999.0,STARLINK-5079,PAYLOAD,2023-10-12 22:45:58,15.08848663,0.0001866,53.2174,198.8603,85.1662,274.9543,0.00036526,5.531e-05,0.0,0 STARLINK-5079,1 53999U 22125AM  23285.94859387  .00005531  00000-0  36526-3 0  9999,2 53999  53.2174 198.8603 0001866  85.1662 274.9543 15.08848663 56805,6917.854,95.437,541.01,538.428,0.0
53999.0,STARLINK-5079,PAYLOAD,2023-10-13 11:29:03,15.08846866,0.0001794,53.218,196.4815,84.0825,276.0372,0.00023686,3.484e-05,0.0,0 STARLINK-5079,1 53999U 22125AM  23286.47851248  .00003484  00000-0  23686-3 0  9994,2 53999  53.2180 196.4815 0001794  84.0825 276.0372 15.08846866 56952,6917.859,95.437,540.965,538.483,0.0
53999.0,STARLINK-5079,PAYLOAD,2023-10-14 00:12:08,15.08853028,0.0001503,53.2148,194.1031,86.0037,274.1127,0.00033039,4.976e-05,0.0,0 STARLINK-5079,1 53999U 22125AM  23287.00842921  .00004976  00000-0  33039-3 0  9992,2 53999  53.2148 194.1031 0001503  86.0037 274.1127 15.08853028 56962,6917.841,95.437,540.745,538.666,0.0
53999.0,STARLINK-5079,PAYLOAD,2023-10-14 22:27:32,15.08836384,0.0001509,53.2172,189.9393,90.7777,269.3388,0.00011922,1.61e-05,0.0,0 STARLINK-5079,1 53999U 22125AM  23287.93579526  .00001610  00000-0  11922-3 0  9991,2 53999  53.2172 189.9393 0001509  90.7777 269.3388 15.08836384 57109,6917.891,95.438,540.8,538.713,0.0
53999.0,STARLINK-5079,PAYLOAD,2023-10-15 00:02:55,15.08837508,0.0001542,53.217,189.643,97.094,263.0228,4.3366e-05,4.02e-06,0.0,0 STARLINK-5079,1 53999U 22125AM  23288.00203495  .00000402  00000-0  43366-4 0  9995,2 53999  53.2170 189.6430 0001542  97.0940 263.0228 15.08837508 57186,6917.888,95.438,540.82,538.686,0.0
53999.0,STARLINK-5079,PAYLOAD,2023-10-15 11:10:37,15.08837668,0.0001588,53.2175,187.5616,98.5186,261.5986,0.00017203,2.451e-05,0.0,0 STARLINK-5079,1 53999U 22125AM  23288.46571744  .00002451  00000-0  17203-3 0  9996,2 53999  53.2175 187.5616 0001588  98.5186 261.5986 15.08837668 57183,6917.888,95.438,540.851,538.654,0.0
53999.0,STARLINK-5079,PAYLOAD,2023-10-15 22:18:19,15.08842728,0.0001442,53.216,185.4814,92.8348,267.2809,0.00030297,4.537e-05,0.0,0 STARLINK-5079,1 53999U 22125AM  23288.92939695  .00004537  00000-0  30297-3 0  9995,2 53999  53.2160 185.4814 0001442  92.8348 267.2809 15.08842728 57258,6917.872,95.437,540.735,538.739,0.0
53999.0,STARLINK-5079,PAYLOAD,2023-10-16 03:04:29,15.08854192,0.0001508,53.2158,184.5879,100.3677,259.7485,0.00050234,7.719e-05,0.0,0 STARLINK-5079,1 53999U 22125AM  23289.12811382  .00007719  00000-0  50234-3 0  9998,2 53999  53.2158 184.5879 0001508 100.3677 259.7485 15.08854192 57354,6917.837,95.437,540.745,538.659,0.0
53999.0,STARLINK-5079,PAYLOAD,2023-10-16 17:22:57,15.08845365,0.0001415,53.2168,181.9117,99.579,260.5362,0.00029747,4.45e-05,0.0,0 STARLINK-5079,1 53999U 22125AM  23289.72427686  .00004450  00000-0  29747-3 0  9998,2 53999  53.2168 181.9117 0001415  99.5790 260.5362 15.08845365 57449,6917.864,95.437,540.708,538.75,0.0
53999.0,STARLINK-5079,PAYLOAD,2023-10-17 09:16:48,15.08848588,0.0001587,53.2166,178.939,93.5254,266.592,0.00026291,3.9e-05,0.0,0 STARLINK-5079,1 53999U 22125AM  23290.38667487  .00003900  00000-0  26291-3 0  9997,2 53999  53.2166 178.9390 0001587  93.5254 266.5920 15.08848588 57474,6917.854,95.437,540.817,538.621,0.0
53999.0,STARLINK-5079,PAYLOAD,2023-10-17 15:38:21,15.08843432,0.000174,53.2165,177.7494,93.1805,266.9387,0.00012628,1.722e-05,0.0,0 STARLINK-5079,1 53999U 22125AM  23290.65163637  .00001722  00000-0  12628-3 0  9994,2 53999  53.2165 177.7494 0001740  93.1805 266.9387 15.08843432 57580,6917.87,95.437,540.939,538.531,0.0
53999.0,STARLINK-5079,PAYLOAD,2023-10-17 23:35:16,15.08849789,0.000134,53.2165,176.2621,92.5529,267.5616,0.00028074,4.184e-05,0.0,0 STARLINK-5079,1 53999U 22125AM  23290.98283285  .00004184  00000-0  28074-3 0  9999,2 53999  53.2165 176.2621 0001340  92.5529 267.5616 15.08849789 57569,6917.85,95.437,540.642,538.788,0.0
53999.0,STARLINK-5079,PAYLOAD,2023-10-19 02:36:49,15.08895829,0.0002051,53.2044,171.1997,100.9867,259.1355,0.0015274,0.00024142,0.0,0 STARLINK-5079,1 53999U 22125AM  23292.10890444  .00024142  00000-0  15274-2 0  9999,2 53999  53.2044 171.1997 0002051 100.9867 259.1355 15.08895829 57804,6917.71,95.434,540.994,538.156,0.0
53999.0,STARLINK-5079,PAYLOAD,2023-10-19 23:16:50,15.08856409,0.0001608,53.2171,167.3412,78.2683,281.849,0.00039022,5.931e-05,0.0,0 STARLINK-5079,1 53999U 22125AM  23292.97002879  .00005931  00000-0  39022-3 0  9994,2 53999  53.2171 167.3412 0001608  78.2683 281.8490 15.08856409 57931,6917.83,95.437,540.808,538.583,0.0
53999.0,STARLINK-5079,PAYLOAD,2023-10-20 05:38:22,15.08857133,0.0001443,53.2157,166.1509,78.8497,281.2657,0.00034986,5.287e-05,0.0,0 STARLINK-5079,1 53999U 22125AM  23293.23498566  .00005287  00000-0  34986-3 0  9994,2 53999  53.2157 166.1509 0001443  78.8497 281.2657 15.08857133 57906,6917.828,95.436,540.691,538.695,0.0
53999.0,STARLINK-5079,PAYLOAD,2023-10-20 21:32:15,15.08827273,0.0001859,53.2179,163.1785,56.9721,303.1449,-0.00017571,-3.083e-05,0.0,0 STARLINK-5079,1 53999U 22125AM  23293.89740064 -.00003083  00000-0 -17571-3 0  9994,2 53999  53.2179 163.1785 0001859  56.9721 303.1449 15.08827273 58008,6917.919,95.438,541.07,538.498,0.0
53999.0,STARLINK-5079,PAYLOAD,2023-10-21 00:43:01,15.0883861,0.0001393,53.2177,162.5836,86.6781,273.4371,0.00010075,1.316e-05,0.0,0 STARLINK-5079,1 53999U 22125AM  23294.02987693  .00001316  00000-0  10075-3 0  9998,2 53999  53.2177 162.5836 0001393  86.6781 273.4371 15.08838610 58094,6917.885,95.438,540.713,538.786,0.0
53999.0,STARLINK-5079,PAYLOAD,2023-10-21 08:39:57,15.08839703,0.0001338,53.2172,161.0947,87.3943,272.7202,0.00038413,5.831e-05,0.0,0 STARLINK-5079,1 53999U 22125AM  23294.36107731  .00005831  00000-0  38413-3 0  9994,2 53999  53.2172 161.0947 0001338  87.3943 272.7202 15.08839703 58070,6917.881,95.438,540.672,538.821,0.0
53999.0,STARLINK-5079,PAYLOAD,2023-10-21 21:23:01,15.08862922,0.0001448,53.2177,158.7155,107.738,252.3771,0.0012318,0.00019383,0.0,0 STARLINK-5079,1 53999U 22125AM  23294.89098950  .00019383  00000-0  12318-2 0  9996,2 53999  53.2177 158.7155 0001448 107.7380 252.3771 15.08862922 58156,6917.81,95.436,540.677,538.674,0.0
53999.0,STARLINK-5079,PAYLOAD,2023-10-22 08:30:43,15.08845888,0.0001844,53.2178,156.6355,85.6066,274.5137,0.00025025,3.698e-05,0.0,0 STARLINK-5079,1 53999U 22125AM  23295.35467590  .00003698  00000-0  25025-3 0  9990,2 53999  53.2178 156.6355 0001844  85.6066 274.5137 15.08845888 58290,6917.862,95.437,541.003,538.452,0.0
53999.0,STARLINK-5079,PAYLOAD,2023-10-22 18:03:03,15.08830515,0.0001562,53.219,154.8505,101.3513,258.7655,-0.00025156,-4.288e-05,0.0,0 STARLINK-5079,1 53999U 22125AM  23295.75211910 -.00004288  00000-0 -25156-3 0  9990,2 53999  53.2190 154.8505 0001562 101.3513 258.7655 15.08830515 58358,6917.909,95.438,540.855,538.694,0.0
53999.0,STARLINK-5079,PAYLOAD,2023-10-22 21:13:49,15.08831523,0.0001527,53.2178,154.256,97.7367,262.3798,-0.00017349,-3.047e-05,0.0,0 STARLINK-5079,1 53999U 22125AM  23295.88459991 -.00003047  00000-0 -17349-3 0  9994,2 53999  53.2178 154.2560 0001527  97.7367 262.3798 15.08831523 58309,6917.906,95.438,540.828,538.715,0.0
53999.0,STARLINK-5079,PAYLOAD,2023-10-23 21:04:37,15.08834972,0.0001663,53.2172,149.7948,98.8134,261.3047,0.00035298,5.333e-05,0.0,0 STARLINK-5079,1 53999U 22125AM  23296.87820788  .00005333  00000-0  35298-3 0  9991,2 53999  53.2172 149.7948 0001663  98.8134 261.3047 15.08834972 58450,6917.896,95.438,540.911,538.61,0.0
53999.0,STARLINK-5079,PAYLOAD,2023-10-24 00:15:23,15.08834777,0.0001655,53.2172,149.2016,97.3222,262.7958,0.00035669,5.392e-05,0.0,0 STARLINK-5079,1 53999U 22125AM  23297.01068907  .00005392  00000-0  35669-3 0  9992,2 53999  53.2172 149.2016 0001655  97.3222 262.7958 15.08834777 58543,6917.896,95.438,540.906,538.616,0.0
53999.0,STARLINK-5079,PAYLOAD,2023-10-25 00:06:09,15.08857206,0.000142,53.2159,144.7425,95.4773,264.6381,0.00058608,9.056e-05,0.0,0 STARLINK-5079,1 53999U 22125AM  23298.00428232  .00009056  00000-0  58608-3 0  9992,2 53999  53.2159 144.7425 0001420  95.4773 264.6381 15.08857206 58691,6917.828,95.436,540.675,538.71,0.0
53999.0,STARLINK-5079,PAYLOAD,2023-10-26 06:18:29,15.08843175,0.0001224,53.2144,139.0915,91.2348,268.8784,0.00011919,1.61e-05,0.0,0 STARLINK-5079,1 53999U 22125AM  23299.26284235  .00001610  00000-0  11919-3 0  9996,2 53999  53.2144 139.0915 0001224  91.2348 268.8784 15.08843175 58884,6917.871,95.437,540.582,538.889,0.0
53999.0,STARLINK-5079,PAYLOAD,2023-10-26 20:36:57,15.08840748,0.0001342,53.2143,136.4149,92.226,267.8886,0.00023895,3.517e-05,0.0,0 STARLINK-5079,1 53999U 22125AM  23299.85900410  .00003517  00000-0  23895-3 0  9995,2 53999  53.2143 136.4149 0001342  92.2260 267.8886 15.08840748 58906,6917.878,95.438,540.671,538.815,0.0
53999.0,STARLINK-5079,PAYLOAD,2023-10-27 12:30:49,15.08844995,0.0001341,53.2148,133.4423,91.0686,269.0459,0.0001527,2.143e-05,0.0,0 STARLINK-5079,1 53999U 22125AM  23300.52140166  .00002143  00000-0  15270-3 0  9998,2 53999  53.2148 133.4423 0001341  91.0686 269.0459 15.08844995 59078,6917.865,95.437,540.658,538.802,0.0
